CCSDS_OMM_VERS = 2.0
CREATION_DATE  = 
ORIGINATOR     = 

OBJECT_NAME    = SL-14 R/B
OBJECT_ID      = 1988-001B
CENTER_NAME    = EARTH
REF_FRAME      = TEME
TIME_SYSTEM    = UTC
MEAN_ELEMENT_THEORY = SGP/SGP4

EPOCH          = 2025-11-30T20:31:42.601152
MEAN_MOTION    = 14.85402854
ECCENTRICITY   = .00174064
INCLINATION    = 82.5121
RA_OF_ASC_NODE = 288.3259
ARG_OF_PERICENTER = 200.4996
MEAN_ANOMALY   = 159.5524

EPHEMERIS_TYPE = 0
CLASSIFICATION_TYPE = U
NORAD_CAT_ID   = 18749
ELEMENT_SET_NO = 999
REV_AT_EPOCH   = 2735
BSTAR          = .64123871E-4
MEAN_MOTION_DOT = .577E-5
MEAN_MOTION_DDOT = 0

CCSDS_OMM_VERS = 2.0
CREATION_DATE  = 
ORIGINATOR     = 

OBJECT_NAME    = COSMOS 1933
OBJECT_ID      = 1988-020A
CENTER_NAME    = EARTH
REF_FRAME      = TEME
TIME_SYSTEM    = UTC
MEAN_ELEMENT_THEORY = SGP/SGP4

EPOCH          = 2025-12-01T00:17:15.973152
MEAN_MOTION    = 15.16958859
ECCENTRICITY   = .00046943
INCLINATION    = 82.5132
RA_OF_ASC_NODE = 348.4668
ARG_OF_PERICENTER = 159.9227
MEAN_ANOMALY   = 200.2192

EPHEMERIS_TYPE = 0
CLASSIFICATION_TYPE = U
NORAD_CAT_ID   = 18958
ELEMENT_SET_NO = 999
REV_AT_EPOCH   = 3526
BSTAR          = .20916513E-3
MEAN_MOTION_DOT = .4157E-4
MEAN_MOTION_DDOT = 0

CCSDS_OMM_VERS = 2.0
CREATION_DATE  = 
ORIGINATOR     = 

OBJECT_NAME    = SL-3 R/B
OBJECT_ID      = 1988-032B
CENTER_NAME    = EARTH
REF_FRAME      = TEME
TIME_SYSTEM    = UTC
MEAN_ELEMENT_THEORY = SGP/SGP4

EPOCH          = 2025-11-30T22:26:59.427456
MEAN_MOTION    = 15.18554564
ECCENTRICITY   = .00254745
INCLINATION    = 97.5066
RA_OF_ASC_NODE = 313.7403
ARG_OF_PERICENTER = 214.9279
MEAN_ANOMALY   = 145.0284

EPHEMERIS_TYPE = 0
CLASSIFICATION_TYPE = U
NORAD_CAT_ID   = 19046
ELEMENT_SET_NO = 999
REV_AT_EPOCH   = 3711
BSTAR          = .2693492E-3
MEAN_MOTION_DOT = .5541E-4
MEAN_MOTION_DDOT = 0

CCSDS_OMM_VERS = 2.0
CREATION_DATE  = 
ORIGINATOR     = 

OBJECT_NAME    = SL-16 R/B
OBJECT_ID      = 1988-039B
CENTER_NAME    = EARTH
REF_FRAME      = TEME
TIME_SYSTEM    = UTC
MEAN_ELEMENT_THEORY = SGP/SGP4

EPOCH          = 2025-11-30T23:30:31.246848
MEAN_MOTION    = 14.19593017
ECCENTRICITY   = .00201471
INCLINATION    = 71.0146
RA_OF_ASC_NODE = 277.2633
ARG_OF_PERICENTER = 136.0525
MEAN_ANOMALY   = 224.2207

EPHEMERIS_TYPE = 0
CLASSIFICATION_TYPE = U
NORAD_CAT_ID   = 19120
ELEMENT_SET_NO = 999
REV_AT_EPOCH   = 94437
BSTAR          = -.13124854E-4
MEAN_MOTION_DOT = -.76E-6
MEAN_MOTION_DDOT = 0

CCSDS_OMM_VERS = 2.0
CREATION_DATE  = 
ORIGINATOR     = 

OBJECT_NAME    = COSMOS 1953
OBJECT_ID      = 1988-050A
CENTER_NAME    = EARTH
REF_FRAME      = TEME
TIME_SYSTEM    = UTC
MEAN_ELEMENT_THEORY = SGP/SGP4

EPOCH          = 2025-11-30T18:38:17.724192
MEAN_MOTION    = 15.26717962
ECCENTRICITY   = .0013696
INCLINATION    = 82.5088
RA_OF_ASC_NODE = 257.5823
ARG_OF_PERICENTER = 107.7193
MEAN_ANOMALY   = 252.5542

EPHEMERIS_TYPE = 0
CLASSIFICATION_TYPE = U
NORAD_CAT_ID   = 19210
ELEMENT_SET_NO = 999
REV_AT_EPOCH   = 2268
BSTAR          = .24462555E-3
MEAN_MOTION_DOT = .6475E-4
MEAN_MOTION_DDOT = 0

CCSDS_OMM_VERS = 2.0
CREATION_DATE  = 
ORIGINATOR     = 

OBJECT_NAME    = SL-8 R/B
OBJECT_ID      = 1988-053B
CENTER_NAME    = EARTH
REF_FRAME      = TEME
TIME_SYSTEM    = UTC
MEAN_ELEMENT_THEORY = SGP/SGP4

EPOCH          = 2025-11-30T23:58:43.446144
MEAN_MOTION    = 14.38847293
ECCENTRICITY   = .00193035
INCLINATION    = 74.0472
RA_OF_ASC_NODE = 294.3578
ARG_OF_PERICENTER = 142.6898
MEAN_ANOMALY   = 281.2326

EPHEMERIS_TYPE = 0
CLASSIFICATION_TYPE = U
NORAD_CAT_ID   = 19257
ELEMENT_SET_NO = 999
REV_AT_EPOCH   = 96240
BSTAR          = .943419E-4
MEAN_MOTION_DOT = .265E-5
MEAN_MOTION_DDOT = 0

CCSDS_OMM_VERS = 2.0
CREATION_DATE  = 
ORIGINATOR     = 

OBJECT_NAME    = COSMOS 1975
OBJECT_ID      = 1988-093A
CENTER_NAME    = EARTH
REF_FRAME      = TEME
TIME_SYSTEM    = UTC
MEAN_ELEMENT_THEORY = SGP/SGP4

EPOCH          = 2025-11-30T15:39:42.280416
MEAN_MOTION    = 15.26192529
ECCENTRICITY   = .0011962
INCLINATION    = 82.5213
RA_OF_ASC_NODE = 216.9251
ARG_OF_PERICENTER = 150.6841
MEAN_ANOMALY   = 209.5071

EPHEMERIS_TYPE = 0
CLASSIFICATION_TYPE = U
NORAD_CAT_ID   = 19573
ELEMENT_SET_NO = 999
REV_AT_EPOCH   = 429
BSTAR          = .32187E-3
MEAN_MOTION_DOT = .8372E-4
MEAN_MOTION_DDOT = 0

CCSDS_OMM_VERS = 2.0
CREATION_DATE  = 
ORIGINATOR     = 

OBJECT_NAME    = SL-14 R/B
OBJECT_ID      = 1988-093B
CENTER_NAME    = EARTH
REF_FRAME      = TEME
TIME_SYSTEM    = UTC
MEAN_ELEMENT_THEORY = SGP/SGP4

EPOCH          = 2025-11-30T23:58:54.404256
MEAN_MOTION    = 14.85528395
ECCENTRICITY   = .0020933
INCLINATION    = 82.5295
RA_OF_ASC_NODE = 134.6849
ARG_OF_PERICENTER = 8.9265
MEAN_ANOMALY   = 114.4630

EPHEMERIS_TYPE = 0
CLASSIFICATION_TYPE = U
NORAD_CAT_ID   = 19574
ELEMENT_SET_NO = 999
REV_AT_EPOCH   = 98638
BSTAR          = .64310237E-4
MEAN_MOTION_DOT = .582E-5
MEAN_MOTION_DDOT = 0

CCSDS_OMM_VERS = 2.0
CREATION_DATE  = 
ORIGINATOR     = 

OBJECT_NAME    = SL-16 R/B
OBJECT_ID      = 1988-102B
CENTER_NAME    = EARTH
REF_FRAME      = TEME
TIME_SYSTEM    = UTC
MEAN_ELEMENT_THEORY = SGP/SGP4

EPOCH          = 2025-11-30T19:17:05.935488
MEAN_MOTION    = 14.16137289
ECCENTRICITY   = .00135755
INCLINATION    = 71.0006
RA_OF_ASC_NODE = 359.5589
ARG_OF_PERICENTER = 171.4137
MEAN_ANOMALY   = 188.7221

EPHEMERIS_TYPE = 0
CLASSIFICATION_TYPE = U
NORAD_CAT_ID   = 19650
ELEMENT_SET_NO = 999
REV_AT_EPOCH   = 91289
BSTAR          = .14236867E-4
MEAN_MOTION_DOT = -.2E-6
MEAN_MOTION_DDOT = 0

CCSDS_OMM_VERS = 2.0
CREATION_DATE  = 
ORIGINATOR     = 

OBJECT_NAME    = INTERCOSMOS 24
OBJECT_ID      = 1989-080A
CENTER_NAME    = EARTH
REF_FRAME      = TEME
TIME_SYSTEM    = UTC
MEAN_ELEMENT_THEORY = SGP/SGP4

EPOCH          = 2025-11-30T12:12:46.603872
MEAN_MOTION    = 12.59405000
ECCENTRICITY   = .11886747
INCLINATION    = 82.6044
RA_OF_ASC_NODE = 168.9054
ARG_OF_PERICENTER = 162.8852
MEAN_ANOMALY   = 201.6234

EPHEMERIS_TYPE = 0
CLASSIFICATION_TYPE = U
NORAD_CAT_ID   = 20261
ELEMENT_SET_NO = 999
REV_AT_EPOCH   = 65431
BSTAR          = .23212643E-3
MEAN_MOTION_DOT = .808E-5
MEAN_MOTION_DDOT = 0

CCSDS_OMM_VERS = 2.0
CREATION_DATE  = 
ORIGINATOR     = 

OBJECT_NAME    = SL-14 R/B
OBJECT_ID      = 1989-080C
CENTER_NAME    = EARTH
REF_FRAME      = TEME
TIME_SYSTEM    = UTC
MEAN_ELEMENT_THEORY = SGP/SGP4

EPOCH          = 2025-11-30T17:50:19.270176
MEAN_MOTION    = 12.50397861
ECCENTRICITY   = .12308479
INCLINATION    = 82.5939
RA_OF_ASC_NODE = 236.7196
ARG_OF_PERICENTER = 50.9995
MEAN_ANOMALY   = 319.4369

EPHEMERIS_TYPE = 0
CLASSIFICATION_TYPE = U
NORAD_CAT_ID   = 20262
ELEMENT_SET_NO = 999
REV_AT_EPOCH   = 64778
BSTAR          = .13027665E-3
MEAN_MOTION_DOT = .458E-5
MEAN_MOTION_DDOT = 0

CCSDS_OMM_VERS = 2.0
CREATION_DATE  = 
ORIGINATOR     = 

OBJECT_NAME    = DELTA 1 R/B
OBJECT_ID      = 1989-089B
CENTER_NAME    = EARTH
REF_FRAME      = TEME
TIME_SYSTEM    = UTC
MEAN_ELEMENT_THEORY = SGP/SGP4

EPOCH          = 2025-11-30T20:15:35.152704
MEAN_MOTION    = 14.50556507
ECCENTRICITY   = .00706638
INCLINATION    = 97.0760
RA_OF_ASC_NODE = 192.9664
ARG_OF_PERICENTER = 75.2039
MEAN_ANOMALY   = 285.6975

EPHEMERIS_TYPE = 0
CLASSIFICATION_TYPE = U
NORAD_CAT_ID   = 20323
ELEMENT_SET_NO = 999
REV_AT_EPOCH   = 88140
BSTAR          = .10355483E-3
MEAN_MOTION_DOT = .384E-5
MEAN_MOTION_DDOT = 0

